[
    {
        "Altitude(m)": 704900.55756181,
        "Argument of Periapsis(deg)": 0.004556048474650827,
        "Eccentricity": 0.0,
        "Inclination(deg)": 45.0,
        "Latitude(deg)": -8.382652149490914,
        "Longitude(deg)": 131.2808160972795,
        "Mean Anomaly(deg)": -11.750313341007697,
        "RAAN(deg)": 239.99569922341672,
        "Satellite Name": "Constellation 1 1077",
        "Satellite Number": 1077,
        "Semi-Major Axis(m)": 7083131.272910544,
        "Time(s)": 76
    },
    {
        "Altitude(m)": 704891.1733148664,
        "Argument of Periapsis(deg)": 0.004615996480896233,
        "Eccentricity": 0.0,
        "Inclination(deg)": 45.0,
        "Latitude(deg)": -8.339925068281202,
        "Longitude(deg)": 131.3204686472335,
        "Mean Anomaly(deg)": -11.689612200757734,
        "RAAN(deg)": 239.99564263425117,
        "Satellite Name": "Constellation 1 1077",
        "Satellite Number": 1077,
        "Semi-Major Axis(m)": 7083131.272910544,
        "Time(s)": 77
    },
    {
        "Altitude(m)": 704881.8067620621,
        "Argument of Periapsis(deg)": 0.004675944487141638,
        "Eccentricity": 0.0,
        "Inclination(deg)": 45.0,
        "Latitude(deg)": -8.297192982840825,
        "Longitude(deg)": 131.36011178712303,
        "Mean Anomaly(deg)": -11.62891106050795,
        "RAAN(deg)": 239.99558604508553,
        "Satellite Name": "Constellation 1 1077",
        "Satellite Number": 1077,
        "Semi-Major Axis(m)": 7083131.272910544,
        "Time(s)": 78
    },
    {
        "Altitude(m)": 704872.457927223,
        "Argument of Periapsis(deg)": 0.004735892493387044,
        "Eccentricity": 0.0,
        "Inclination(deg)": 45.0,
        "Latitude(deg)": -8.254455919758904,
        "Longitude(deg)": 131.39974556714083,
        "Mean Anomaly(deg)": -11.568209920257987,
        "RAAN(deg)": 239.99552945591998,
        "Satellite Name": "Constellation 1 1077",
        "Satellite Number": 1077,
        "Semi-Major Axis(m)": 7083131.272910544,
        "Time(s)": 79
    },
    {
        "Altitude(m)": 704863.126834079,
        "Argument of Periapsis(deg)": 0.004795840499632449,
        "Eccentricity": 0.0,
        "Inclination(deg)": 45.0,
        "Latitude(deg)": -8.211713905607299,
        "Longitude(deg)": 131.43937003745964,
        "Mean Anomaly(deg)": -11.507508780008049,
        "RAAN(deg)": 239.99547286675443,
        "Satellite Name": "Constellation 1 1077",
        "Satellite Number": 1077,
        "Semi-Major Axis(m)": 7083131.272910544,
        "Time(s)": 80
    },
    {
        "Altitude(m)": 704853.8135062796,
        "Argument of Periapsis(deg)": 0.004855788505877855,
        "Eccentricity": 0.0,
        "Inclination(deg)": 45.0,
        "Latitude(deg)": -8.168966966940337,
        "Longitude(deg)": 131.4789852482331,
        "Mean Anomaly(deg)": -11.44680763975819,
        "RAAN(deg)": 239.99541627758887,
        "Satellite Name": "Constellation 1 1077",
        "Satellite Number": 1077,
        "Semi-Major Axis(m)": 7083131.272910544,
        "Time(s)": 81
    },
    {
        "Altitude(m)": 704844.5179673922,
        "Argument of Periapsis(deg)": 0.00491573651212326,
        "Eccentricity": 0.0,
        "Inclination(deg)": 45.0,
        "Latitude(deg)": -8.126215130294607,
        "Longitude(deg)": 131.51859108149904,
        "Mean Anomaly(deg)": -11.386106499508326,
        "RAAN(deg)": 239.99535968842332,
        "Satellite Name": "Constellation 1 1077",
        "Satellite Number": 1077,
        "Semi-Major Axis(m)": 7083131.272910544,
        "Time(s)": 82
    },
    {
        "Altitude(m)": 704835.2402408948,
        "Argument of Periapsis(deg)": 0.004975684518368666,
        "Eccentricity": 0.0,
        "Inclination(deg)": 45.0,
        "Latitude(deg)": -8.083458422189915,
        "Longitude(deg)": 131.55818792356675,
        "Mean Anomaly(deg)": -11.325405359258339,
        "RAAN(deg)": 239.99530309925768,
        "Satellite Name": "Constellation 1 1077",
        "Satellite Number": 1077,
        "Semi-Major Axis(m)": 7083131.272910544,
        "Time(s)": 83
    },
    {
        "Altitude(m)": 704825.980350184,
        "Argument of Periapsis(deg)": 0.005035632524614072,
        "Eccentricity": 0.0,
        "Inclination(deg)": 45.0,
        "Latitude(deg)": -8.04069686912863,
        "Longitude(deg)": 131.59777565643583,
        "Mean Anomaly(deg)": -11.264704219008479,
        "RAAN(deg)": 239.99524651009213,
        "Satellite Name": "Constellation 1 1077",
        "Satellite Number": 1077,
        "Semi-Major Axis(m)": 7083131.272910544,
        "Time(s)": 84
    },
    {
        "Altitude(m)": 704816.7383185752,
        "Argument of Periapsis(deg)": 0.0050955805308594785,
        "Eccentricity": 0.0,
        "Inclination(deg)": 45.0,
        "Latitude(deg)": -7.9979304975958705,
        "Longitude(deg)": 131.63735433018365,
        "Mean Anomaly(deg)": -11.204003078758642,
        "RAAN(deg)": 239.99518992092658,
        "Satellite Name": "Constellation 1 1077",
        "Satellite Number": 1077,
        "Semi-Major Axis(m)": 7083131.272910544,
        "Time(s)": 85
    },
    {
        "Altitude(m)": 704807.5141692929,
        "Argument of Periapsis(deg)": 0.005155528537104883,
        "Eccentricity": 0.0,
        "Inclination(deg)": 45.0,
        "Latitude(deg)": -7.955159334059806,
        "Longitude(deg)": 131.67692399486927,
        "Mean Anomaly(deg)": -11.14330193850868,
        "RAAN(deg)": 239.99513333176102,
        "Satellite Name": "Constellation 1 1077",
        "Satellite Number": 1077,
        "Semi-Major Axis(m)": 7083131.272910544,
        "Time(s)": 86
    },
    {
        "Altitude(m)": 704798.3079254786,
        "Argument of Periapsis(deg)": 0.0052154765433502885,
        "Eccentricity": 0.0,
        "Inclination(deg)": 45.0,
        "Latitude(deg)": -7.912383404971798,
        "Longitude(deg)": 131.71648470053236,
        "Mean Anomaly(deg)": -11.082600798258742,
        "RAAN(deg)": 239.99507674259547,
        "Satellite Name": "Constellation 1 1077",
        "Satellite Number": 1077,
        "Semi-Major Axis(m)": 7083131.272910544,
        "Time(s)": 87
    },
    {
        "Altitude(m)": 704789.1196101914,
        "Argument of Periapsis(deg)": 0.005275424549595694,
        "Eccentricity": 0.0,
        "Inclination(deg)": 45.0,
        "Latitude(deg)": -7.86960273676645,
        "Longitude(deg)": 131.75603649719437,
        "Mean Anomaly(deg)": -11.021899658008932,
        "RAAN(deg)": 239.99502015342983,
        "Satellite Name": "Constellation 1 1077",
        "Satellite Number": 1077,
        "Semi-Major Axis(m)": 7083131.272910544,
        "Time(s)": 88
    },
    {
        "Altitude(m)": 704779.9492464061,
        "Argument of Periapsis(deg)": 0.0053353725558411,
        "Eccentricity": 0.0,
        "Inclination(deg)": 45.0,
        "Latitude(deg)": -7.826817355861123,
        "Longitude(deg)": 131.79557926676122,
        "Mean Anomaly(deg)": -10.961198517758996,
        "RAAN(deg)": 239.99496356426428,
        "Satellite Name": "Constellation 1 1077",
        "Satellite Number": 1077,
        "Semi-Major Axis(m)": 7083131.272910544,
        "Time(s)": 89
    },
    {
        "Altitude(m)": 704770.7968570116,
        "Argument of Periapsis(deg)": 0.005395320562086505,
        "Eccentricity": 0.0,
        "Inclination(deg)": 45.0,
        "Latitude(deg)": -7.784027288657504,
        "Longitude(deg)": 131.83511339541116,
        "Mean Anomaly(deg)": -10.900497377509135,
        "RAAN(deg)": 239.99490697509873,
        "Satellite Name": "Constellation 1 1077",
        "Satellite Number": 1077,
        "Semi-Major Axis(m)": 7083131.272910544,
        "Time(s)": 90
    },
    {
        "Altitude(m)": 704761.6624648087,
        "Argument of Periapsis(deg)": 0.00545526856833191,
        "Eccentricity": 0.0,
        "Inclination(deg)": 45.0,
        "Latitude(deg)": -7.7412325615398805,
        "Longitude(deg)": 131.87463876501334,
        "Mean Anomaly(deg)": -10.83979623725917,
        "RAAN(deg)": 239.99485038593318,
        "Satellite Name": "Constellation 1 1077",
        "Satellite Number": 1077,
        "Semi-Major Axis(m)": 7083131.272910544,
        "Time(s)": 91
    },
    {
        "Altitude(m)": 704752.5460925146,
        "Argument of Periapsis(deg)": 0.005515216574577317,
        "Eccentricity": 0.0,
        "Inclination(deg)": 45.0,
        "Latitude(deg)": -7.698433200876598,
        "Longitude(deg)": 131.91415542551536,
        "Mean Anomaly(deg)": -10.77909509700931,
        "RAAN(deg)": 239.9947937967676,
        "Satellite Name": "Constellation 1 1077",
        "Satellite Number": 1077,
        "Semi-Major Axis(m)": 7083131.272910544,
        "Time(s)": 92
    },
    {
        "Altitude(m)": 704743.4477627663,
        "Argument of Periapsis(deg)": 0.005575164580822722,
        "Eccentricity": 0.0,
        "Inclination(deg)": 45.0,
        "Latitude(deg)": -7.6556292330193285,
        "Longitude(deg)": 131.95366342684687,
        "Mean Anomaly(deg)": -10.718393956759373,
        "RAAN(deg)": 239.99473720760204,
        "Satellite Name": "Constellation 1 1077",
        "Satellite Number": 1077,
        "Semi-Major Axis(m)": 7083131.272910544,
        "Time(s)": 93
    },
    {
        "Altitude(m)": 704734.3674981049,
        "Argument of Periapsis(deg)": 0.005635112587068129,
        "Eccentricity": 0.0,
        "Inclination(deg)": 45.0,
        "Latitude(deg)": -7.612820684303879,
        "Longitude(deg)": 131.9931628189191,
        "Mean Anomaly(deg)": -10.657692816509588,
        "RAAN(deg)": 239.99468061843643,
        "Satellite Name": "Constellation 1 1077",
        "Satellite Number": 1077,
        "Semi-Major Axis(m)": 7083131.272910544,
        "Time(s)": 94
    }
]